[{"OBJECT_NAME":"CUBESX-HSE 3 (RS42S)","OBJECT_ID":"2023-091N","EPOCH":"2026-03-09T22:57:25.321248","MEAN_MOTION":15.286147,"ECCENTRICITY":0.00127191,"INCLINATION":97.5203,"RA_OF_ASC_NODE":133.4295,"ARG_OF_PERICENTER":86.5376,"MEAN_ANOMALY":273.7318,"EPHEMERIS_TYPE":0,"CLASSIFICATION_TYPE":"U","NORAD_CAT_ID":57178,"ELEMENT_SET_NO":999,"REV_AT_EPOCH":14925,"BSTAR":0.00059055694,"MEAN_MOTION_DOT":0.00016417,"MEAN_MOTION_DDOT":0},{"OBJECT_NAME":"STARLINK-36538","OBJECT_ID":"2026-012V","EPOCH":"2026-03-09T23:32:14.919072","MEAN_MOTION":15.27590595,"ECCENTRICITY":0.00018041,"INCLINATION":43.0049,"RA_OF_ASC_NODE":312.9874,"ARG_OF_PERICENTER":285.501,"MEAN_ANOMALY":74.5643,"EPHEMERIS_TYPE":0,"CLASSIFICATION_TYPE":"U","NORAD_CAT_ID":67512,"ELEMENT_SET_NO":999,"REV_AT_EPOCH":780,"BSTAR":0.001154163,"MEAN_MOTION_DOT":0.00031645,"MEAN_MOTION_DDOT":0}]
